NORAD_CAT_ID,OBJECT_NAME,OBJECT_TYPE,EPOCH,MEAN_MOTION,ECCENTRICITY,INCLINATION,RA_OF_ASC_NODE,ARG_OF_PERICENTER,MEAN_ANOMALY,BSTAR,MEAN_MOTION_DOT,MEAN_MOTION_DDOT,TLE_LINE0,TLE_LINE1,TLE_LINE2,SEMIMAJOR_AXIS,PERIOD,APOGEE,PERIGEE,DECAYED
53535.0,STARLINK-4138,PAYLOAD,2023-04-30 07:41:58,15.08843459,0.0001275,53.2155,82.4706,96.9431,263.1706,-1.3842e-05,-5.08e-06,0.0,0 STARLINK-4138,1 53535U 22101J   23120.32081355 -.00000508  00000-0 -13842-4 0  9999,2 53535  53.2155  82.4706 0001275  96.9431 263.1706 15.08843459 38506,6917.87,95.437,540.617,538.853,0.0
53535.0,STARLINK-4138,PAYLOAD,2023-05-01 02:46:36,15.08830252,0.0001316,53.2164,78.9023,109.3992,250.7142,-4.6606e-05,-1.029e-05,0.0,0 STARLINK-4138,1 53535U 22101J   23121.11570519 -.00001029  00000-0 -46606-4 0  9995,2 53535  53.2164  78.9023 0001316 109.3992 250.7142 15.08830252 38621,6917.91,95.438,540.686,538.865,0.0
53535.0,STARLINK-4138,PAYLOAD,2023-05-01 07:32:46,15.08833136,0.0001151,53.2166,78.0117,95.1723,264.94,-2.4714e-05,-6.81e-06,0.0,0 STARLINK-4138,1 53535U 22101J   23121.31442415 -.00000681  00000-0 -24714-4 0  9999,2 53535  53.2166  78.0117 0001151  95.1723 264.9400 15.08833136 38650,6917.901,95.438,540.563,538.97,0.0
53535.0,STARLINK-4138,PAYLOAD,2023-05-02 04:12:46,15.08843988,0.0001162,53.2165,74.145,110.9479,249.1638,4.3141e-05,3.99e-06,0.0,0 STARLINK-4138,1 53535U 22101J   23122.17553734  .00000399  00000-0  43141-4 0  9990,2 53535  53.2165  74.1450 0001162 110.9479 249.1638 15.08843988 38780,6917.868,95.437,540.537,538.929,0.0
53535.0,STARLINK-4138,PAYLOAD,2023-05-02 13:45:05,15.08845345,0.0001118,53.2169,72.362,85.5986,274.5134,4.3508e-05,4.05e-06,0.0,0 STARLINK-4138,1 53535U 22101J   23122.57297674  .00000405  00000-0  43508-4 0  9997,2 53535  53.2169  72.3620 0001118  85.5986 274.5134 15.08845345 38843,6917.864,95.437,540.502,538.956,0.0
53535.0,STARLINK-4138,PAYLOAD,2023-05-02 21:42:01,15.08834561,0.0001252,53.217,70.8752,85.2175,274.896,9.0025e-05,1.145e-05,0.0,0 STARLINK-4138,1 53535U 22101J   23122.90418350  .00001145  00000-0  90025-4 0  9998,2 53535  53.2170  70.8752 0001252  85.2175 274.8960 15.08834561 38893,6917.897,95.438,540.628,538.896,0.0
53535.0,STARLINK-4138,PAYLOAD,2023-05-03 05:38:56,15.08844569,0.0001439,53.2175,69.3878,101.4412,258.6741,6.4102e-05,7.32e-06,0.0,0 STARLINK-4138,1 53535U 22101J   23123.23537862  .00000732  00000-0  64102-4 0  9993,2 53535  53.2175  69.3878 0001439 101.4412 258.6741 15.08844569 38944,6917.866,95.437,540.727,538.736,0.0
53535.0,STARLINK-4138,PAYLOAD,2023-05-04 02:18:57,15.08841987,0.0001236,53.2173,65.5229,86.6574,273.456,-3.572e-05,-8.56e-06,0.0,0 STARLINK-4138,1 53535U 22101J   23124.09650396 -.00000856  00000-0 -35720-4 0  9999,2 53535  53.2173  65.5229 0001236  86.6574 273.4560 15.08841987 39078,6917.874,95.437,540.594,538.884,0.0
53535.0,STARLINK-4138,PAYLOAD,2023-05-04 05:29:44,15.08843088,0.0001257,53.2172,64.9272,88.1909,271.9227,-2.6389e-05,-7.08e-06,0.0,0 STARLINK-4138,1 53535U 22101J   23124.22898279 -.00000708  00000-0 -26389-4 0  9995,2 53535  53.2172  64.9272 0001257  88.1909 271.9227 15.08843088 39099,6917.871,95.437,540.606,538.866,0.0
53535.0,STARLINK-4138,PAYLOAD,2023-05-05 05:20:30,15.08845972,0.0001151,53.2165,60.4658,93.9639,266.1485,4.2308e-05,3.86e-06,0.0,0 STARLINK-4138,1 53535U 22101J   23125.22257649  .00000386  00000-0  42308-4 0  9995,2 53535  53.2165  60.4658 0001151  93.9639 266.1485 15.08845972 39240,6917.862,95.437,540.523,538.931,0.0
53535.0,STARLINK-4138,PAYLOAD,2023-05-06 02:00:31,15.08840183,0.0001276,53.2176,56.597,104.5563,255.5571,4.005e-05,3.5e-06,0.0,0 STARLINK-4138,1 53535U 22101J   23126.08370001  .00000350  00000-0  40050-4 0  9991,2 53535  53.2176  56.5970 0001276 104.5563 255.5571 15.08840183 39379,6917.88,95.438,540.628,538.862,0.0
53535.0,STARLINK-4138,PAYLOAD,2023-05-07 01:51:18,15.08851963,9.84e-05,53.2164,52.1434,90.2698,269.8407,2.7962e-05,1.57e-06,0.0,0 STARLINK-4138,1 53535U 22101J   23127.07729466  .00000157  00000-0  27962-4 0  9996,2 53535  53.2164  52.1434 0000984  90.2698 269.8407 15.08851963 39529,6917.844,95.437,540.39,539.028,0.0
53535.0,STARLINK-4138,PAYLOAD,2023-05-08 01:42:07,15.08830143,9.97e-05,53.2175,47.682,93.6614,266.4492,-2.8717e-05,-7.45e-06,0.0,0 STARLINK-4138,1 53535U 22101J   23128.07091467 -.00000745  00000-0 -28717-4 0  9994,2 53535  53.2175  47.6820 0000997  93.6614 266.4492 15.08830143 39678,6917.911,95.438,540.465,539.086,0.0
53535.0,STARLINK-4138,PAYLOAD,2023-05-08 22:22:06,15.08847458,7.65e-05,53.2169,43.8149,85.9311,274.1769,5.8104e-05,6.37e-06,0.0,0 STARLINK-4138,1 53535U 22101J   23128.93202356  .00000637  00000-0  58104-4 0  9991,2 53535  53.2169  43.8149 0000765  85.9311 274.1769 15.08847458 39809,6917.858,95.437,540.252,539.193,0.0
53535.0,STARLINK-4138,PAYLOAD,2023-05-08 23:57:30,15.0884539,8.28e-05,53.2159,43.5132,57.2196,302.8876,4.6188e-05,4.48e-06,0.0,0 STARLINK-4138,1 53535U 22101J   23128.99826454  .00000448  00000-0  46188-4 0  9997,2 53535  53.2159  43.5132 0000828  57.2196 302.8876 15.08845390 39812,6917.864,95.437,540.302,539.156,0.0
53535.0,STARLINK-4138,PAYLOAD,2023-05-10 01:23:40,15.08845189,6.4e-05,53.2173,38.7562,69.4749,290.6311,0.00013889,1.924e-05,0.0,0 STARLINK-4138,1 53535U 22101J   23130.05810463  .00001924  00000-0  13889-3 0  9991,2 53535  53.2173  38.7562 0000640  69.4749 290.6311 15.08845189 39973,6917.865,95.437,540.172,539.287,0.0
53535.0,STARLINK-4138,PAYLOAD,2023-05-11 01:14:26,15.08851785,0.0001167,53.2177,34.3021,135.1698,224.9389,0.00012967,1.777e-05,0.0,0 STARLINK-4138,1 53535U 22101J   23131.05169960  .00001777  00000-0  12967-3 0  9993,2 53535  53.2177  34.3021 0001167 135.1698 224.9389 15.08851785 40121,6917.844,95.437,540.517,538.902,0.0
53535.0,STARLINK-4138,PAYLOAD,2023-05-12 04:16:01,15.08839532,9.82e-05,53.2181,29.2436,72.7126,287.3973,2.7652e-05,1.52e-06,0.0,0 STARLINK-4138,1 53535U 22101J   23132.17779433  .00000152  00000-0  27652-4 0  9993,2 53535  53.2181  29.2436 0000982  72.7126 287.3973 15.08839532 40291,6917.882,95.438,540.426,539.067,0.0
53535.0,STARLINK-4138,PAYLOAD,2023-05-12 20:09:52,15.08849419,9.3e-05,53.2177,26.2711,69.6497,290.4595,5.4301e-05,5.77e-06,0.0,0 STARLINK-4138,1 53535U 22101J   23132.84018778  .00000577  00000-0  54301-4 0  9997,2 53535  53.2177  26.2711 0000930  69.6497 290.4595 15.08849419 40399,6917.852,95.437,540.36,539.073,0.0
53535.0,STARLINK-4138,PAYLOAD,2023-05-13 02:31:23,15.08862277,9.48e-05,53.218,25.0826,81.2608,278.8492,0.00018472,2.655e-05,0.0,0 STARLINK-4138,1 53535U 22101J   23133.10513592  .00002655  00000-0  18472-3 0  9998,2 53535  53.2180  25.0826 0000948  81.2608 278.8492 15.08862277 40438,6917.812,95.436,540.333,539.021,0.0
53535.0,STARLINK-4138,PAYLOAD,2023-05-13 20:00:40,15.08835882,7.58e-05,53.2181,21.8127,98.057,262.0508,5.6149e-05,6.06e-06,0.0,0 STARLINK-4138,1 53535U 22101J   23133.83379690  .00000606  00000-0  56149-4 0  9995,2 53535  53.2181  21.8127 0000758  98.0570 262.0508 15.08835882 40547,6917.893,95.438,540.282,539.234,0.0
53535.0,STARLINK-4138,PAYLOAD,2023-05-13 21:36:02,15.08844702,0.0001323,53.2174,21.5154,128.3365,231.7746,0.00011712,1.577e-05,0.0,0 STARLINK-4138,1 53535U 22101J   23133.90003079  .00001577  00000-0  11712-3 0  9992,2 53535  53.2174  21.5154 0001323 128.3365 231.7746 15.08844702 40553,6917.866,95.437,540.646,538.816,0.0
53535.0,STARLINK-4138,PAYLOAD,2023-05-14 02:22:12,15.08844662,9.63e-05,53.2173,20.6229,83.2746,276.8356,0.00013087,1.796e-05,0.0,0 STARLINK-4138,1 53535U 22101J   23134.09875208  .00001796  00000-0  13087-3 0  9994,2 53535  53.2173  20.6229 0000963  83.2746 276.8356 15.08844662 40581,6917.866,95.437,540.397,539.065,0.0
53535.0,STARLINK-4138,PAYLOAD,2023-05-14 21:26:49,15.08848392,0.000108,53.2181,17.0554,102.1954,257.9159,-3.0677e-05,-7.76e-06,0.0,0 STARLINK-4138,1 53535U 22101J   23134.89362652 -.00000776  00000-0 -30677-4 0  9990,2 53535  53.2181  17.0554 0001080 102.1954 257.9159 15.08848392 40703,6917.855,95.437,540.467,538.973,0.0
53535.0,STARLINK-4138,PAYLOAD,2023-05-15 08:34:31,15.08841479,0.0001139,53.2169,14.9736,85.9481,274.1641,-6.8425e-05,-1.377e-05,0.0,0 STARLINK-4138,1 53535U 22101J   23135.35731084 -.00001377  00000-0 -68425-4 0  9991,2 53535  53.2169  14.9736 0001139  85.9481 274.1641 15.08841479 40778,6917.876,95.437,540.529,538.953,0.0
53535.0,STARLINK-4138,PAYLOAD,2023-05-15 16:31:28,15.08821173,0.0001416,53.2176,13.4859,98.7426,261.3726,0.00044915,6.864e-05,0.0,0 STARLINK-4138,1 53535U 22101J   23135.68852115  .00006864  00000-0  44915-3 0  9997,2 53535  53.2176  13.4859 0001416  98.7426 261.3726 15.08821173 40822,6917.938,95.439,540.783,538.823,0.0
53535.0,STARLINK-4138,PAYLOAD,2023-05-16 14:46:51,15.08836465,0.0001334,53.2175,9.3239,92.7587,267.3557,2.8195e-05,1.61e-06,0.0,0 STARLINK-4138,1 53535U 22101J   23136.61587722  .00000161  00000-0  28195-4 0  9997,2 53535  53.2175   9.3239 0001334  92.7587 267.3557 15.08836465 40961,6917.891,95.438,540.679,538.833,0.0
53535.0,STARLINK-4138,PAYLOAD,2023-05-17 19:23:48,15.08835815,0.0001062,53.2166,3.9694,92.5581,267.5533,0.00013145,1.805e-05,0.0,0 STARLINK-4138,1 53535U 22101J   23137.80820076  .00001805  00000-0  13145-3 0  9995,2 53535  53.2166   3.9694 0001062  92.5581 267.5533 15.08835815 41141,6917.893,95.438,540.493,539.024,0.0
53535.0,STARLINK-4138,PAYLOAD,2023-05-17 20:59:11,15.08835384,9.7e-05,53.2171,3.6719,88.3795,271.7308,9.7592e-05,1.266e-05,0.0,0 STARLINK-4138,1 53535U 22101J   23137.87444249  .00001266  00000-0  97592-4 0  9996,2 53535  53.2171   3.6719 0000970  88.3795 271.7308 15.08835384 41158,6917.894,95.438,540.431,539.088,0.0
53535.0,STARLINK-4138,PAYLOAD,2023-05-18 14:28:26,15.08836586,9.38e-05,53.2168,0.4004,86.153,273.9569,5.5292e-05,5.92e-06,0.0,0 STARLINK-4138,1 53535U 22101J   23138.60308443  .00000592  00000-0  55292-4 0  9995,2 53535  53.2168   0.4004 0000938  86.1530 273.9569 15.08836586 41263,6917.891,95.438,540.405,539.107,0.0
